NORAD_CAT_ID,OBJECT_NAME,OBJECT_TYPE,EPOCH,MEAN_MOTION,ECCENTRICITY,INCLINATION,RA_OF_ASC_NODE,ARG_OF_PERICENTER,MEAN_ANOMALY,BSTAR,MEAN_MOTION_DOT,MEAN_MOTION_DDOT,TLE_LINE0,TLE_LINE1,TLE_LINE2,SEMIMAJOR_AXIS,PERIOD,APOGEE,PERIGEE,DECAYED
49740.0,STARLINK-3226,PAYLOAD,2022-07-31 16:54:49,15.08834194,0.0001317,53.2171,301.3009,64.2549,295.8579,9.8853e-08,-2.86e-06,0.0,0 STARLINK-3226,1 49740U 21115S   22212.70473971 -.00000286  00000-0  98853-7 0  9998,2 49740  53.2171 301.3009 0001317  64.2549 295.8579 15.08834194 36718,6917.898,95.438,540.674,538.852,0.0
49740.0,STARLINK-3226,PAYLOAD,2022-08-01 11:59:27,15.08834321,0.000134,53.2169,297.7326,64.3052,295.8079,0.00010634,1.405e-05,0.0,0 STARLINK-3226,1 49740U 21115S   22213.49961906  .00001405  00000-0  10634-3 0  9995,2 49740  53.2169 297.7326 0001340  64.3052 295.8079 15.08834321 36831,6917.898,95.438,540.69,538.836,0.0
49740.0,STARLINK-3226,PAYLOAD,2022-08-01 15:10:13,15.08834585,0.0001351,53.2169,297.1379,64.1091,296.004,0.00010464,1.378e-05,0.0,0 STARLINK-3226,1 49740U 21115S   22213.63209943  .00001378  00000-0  10464-3 0  9997,2 49740  53.2169 297.1379 0001351  64.1091 296.0040 15.08834585 36851,6917.897,95.438,540.697,538.827,0.0
49740.0,STARLINK-3226,PAYLOAD,2022-08-02 11:50:13,15.08843635,0.0001355,53.2168,293.2721,64.0929,296.0203,0.00011757,1.584e-05,0.0,0 STARLINK-3226,1 49740U 21115S   22214.49321358  .00001584  00000-0  11757-3 0  9992,2 49740  53.2168 293.2721 0001355  64.0929 296.0203 15.08843635 36982,6917.869000000002,95.437,540.672,538.797,0.0
49740.0,STARLINK-3226,PAYLOAD,2022-08-03 11:41:01,15.08838957,0.0001401,53.2165,288.8115,65.5491,294.5647,-1.4084e-05,-5.12e-06,0.0,0 STARLINK-3226,1 49740U 21115S   22215.48681903 -.00000512  00000-0 -14084-4 0  9996,2 49740  53.2165 288.8115 0001401  65.5491 294.5647 15.08838957 38245,6917.884,95.438,540.7180000000002,538.779,0.0
49740.0,STARLINK-3226,PAYLOAD,2022-08-03 16:27:10,15.08840064,0.0001419999999999,53.2163,287.9197,63.7593,296.3545,-3.0892e-06,-3.37e-06,0.0,0 STARLINK-3226,1 49740U 21115S   22215.68553785 -.00000337  00000-0 -30892-5 0  9995,2 49740  53.2163 287.9197 0001420  63.7593 296.3545 15.08840064 37166,6917.88,95.438,540.7280000000002,538.763,0.0
49740.0,STARLINK-3226,PAYLOAD,2022-08-04 11:31:47,15.08846429,0.0001453999999999,53.2162,284.3511,63.8709,296.2433,-7.541e-06,-4.08e-06,0.0,0 STARLINK-3226,1 49740U 21115S   22216.48041202 -.00000408  00000-0 -75410-5 0  9994,2 49740  53.2162 284.3511 0001454  63.8709 296.2433 15.08846429 37282,6917.861,95.437,540.732,538.72,0.0
49740.0,STARLINK-3226,PAYLOAD,2022-08-04 16:17:56,15.08846836,0.0001459,53.2161,283.4589,63.5179,296.5963,-3.1341e-06,-3.38e-06,0.0,0 STARLINK-3226,1 49740U 21115S   22216.67913074 -.00000338  00000-0 -31341-5 0  9997,2 49740  53.2161 283.4589 0001459  63.5179 296.5963 15.08846836 37316,6917.859,95.437,540.734,538.715,0.0
49740.0,STARLINK-3226,PAYLOAD,2022-08-05 05:01:02,15.08835888,0.0001501999999999,53.216,281.0799,63.6479,296.4668,-3.4807e-05,-8.42e-06,0.0,0 STARLINK-3226,1 49740U 21115S   22217.20905841 -.00000842  00000-0 -34807-4 0  9999,2 49740  53.2160 281.0799 0001502  63.6479 296.4668 15.08835888 38503,6917.893,95.438,540.797,538.719,0.0
49740.0,STARLINK-3226,PAYLOAD,2022-08-05 11:22:35,15.08830176,0.0001483,53.2162,279.8906,62.5383,297.576,-1.6175e-05,-5.45e-06,0.0,0 STARLINK-3226,1 49740U 21115S   22217.47402228 -.00000545  00000-0 -16175-4 0  9997,2 49740  53.2162 279.8906 0001483  62.5383 297.5760 15.08830176 37431,6917.91,95.438,540.8009999999998,538.749,0.0
49740.0,STARLINK-3226,PAYLOAD,2022-08-05 16:08:44,15.08833363,0.0001479,53.2159,278.9988,62.0718,298.0424,-1.2075e-05,-4.8e-06,0.0,0 STARLINK-3226,1 49740U 21115S   22217.67274099 -.00000480  00000-0 -12075-4 0  9995,2 49740  53.2159 278.9988 0001479  62.0718 298.0424 15.08833363 37466,6917.901,95.438,540.789,538.743,0.0
49740.0,STARLINK-3226,PAYLOAD,2022-08-06 12:48:45,15.08838948,0.000149,53.2159,275.133,60.7391,299.375,-8.9405e-06,-4.3e-06,0.0,0 STARLINK-3226,1 49740U 21115S   22218.53385923 -.00000430  00000-0 -89405-5 0  9997,2 49740  53.2159 275.1330 0001490  60.7391 299.3750 15.08838948 37595,6917.884,95.438,540.779,538.7180000000002,0.0
49740.0,STARLINK-3226,PAYLOAD,2022-08-06 15:59:31,15.08837977,0.0001460999999999,53.2163,274.5401,65.6786,294.4358,-1.192e-05,-4.78e-06,0.0,0 STARLINK-3226,1 49740U 21115S   22218.66634017 -.00000478  00000-0 -11920-4 0  9990,2 49740  53.2163 274.5401 0001461  65.6786 294.4358 15.08837977 37616,6917.887,95.438,540.762,538.741,0.0
49740.0,STARLINK-3226,PAYLOAD,2022-08-07 11:04:08,15.08840797,0.0001419,53.2156,270.9692,59.4716,300.6416,0.00010191,1.334e-05,0.0,0 STARLINK-3226,1 49740U 21115S   22219.46121452  .00001334  00000-0  10191-3 0  9991,2 49740  53.2156 270.9692 0001419  59.4716 300.6416 15.08840797 37739,6917.878000000002,95.438,540.725,538.761,0.0
49740.0,STARLINK-3226,PAYLOAD,2022-08-07 15:50:18,15.08842841,0.0001435,53.2156,270.077,59.5163,300.597,0.00011313,1.513e-05,0.0,0 STARLINK-3226,1 49740U 21115S   22219.65993272  .00001513  00000-0  11313-3 0  9995,2 49740  53.2156 270.0770 0001435  59.5163 300.5970 15.08842841 38874,6917.871999999999,95.437,540.729,538.744,0.0
49740.0,STARLINK-3226,PAYLOAD,2022-08-07 20:36:27,15.08845698,0.0001426999999999,53.2157,269.1849,59.52,300.5933,0.00012396,1.686e-05,0.0,0 STARLINK-3226,1 49740U 21115S   22219.85865018  .00001686  00000-0  12396-3 0  9996,2 49740  53.2157 269.1849 0001427  59.5200 300.5933 15.08845698 37796,6917.863,95.437,540.715,538.741,0.0
49740.0,STARLINK-3226,PAYLOAD,2022-08-08 10:54:56,15.08840972,0.0001526,53.2161,266.5082,61.0747,299.0399,3.0889e-05,2.04e-06,0.0,0 STARLINK-3226,1 49740U 21115S   22220.45481583  .00000204  00000-0  30889-4 0  9998,2 49740  53.2161 266.5082 0001526  61.0747 299.0399 15.08840972 37883,6917.877,95.437,540.798,538.687,0.0
49740.0,STARLINK-3226,PAYLOAD,2022-08-08 20:27:14,15.08843518,0.0001543,53.2162,264.724,61.1432,298.9715,4.9914e-05,5.07e-06,0.0,0 STARLINK-3226,1 49740U 21115S   22220.85225266  .00000507  00000-0  49914-4 0  9991,2 49740  53.2162 264.7240 0001543  61.1432 298.9715 15.08843518 37947,6917.87,95.437,540.802,538.6669999999998,0.0
49740.0,STARLINK-3226,PAYLOAD,2022-08-09 12:21:05,15.08841815,0.0001764999999999,53.2152,261.7537,40.6945,319.4179,3.9433e-05,3.4e-06,0.0,0 STARLINK-3226,1 49740U 21115S   22221.51465143  .00000340  00000-0  39433-4 0  9995,2 49740  53.2152 261.7537 0001765  40.6945 319.4179 15.08841815 38042,6917.875,95.437,540.961,538.519,0.0
49740.0,STARLINK-3226,PAYLOAD,2022-08-10 02:39:34,15.08833312,0.0001621999999999,53.2145,259.0744,58.2244,301.8906,-0.00010377,-1.939e-05,0.0,0 STARLINK-3226,1 49740U 21115S   22222.11082141 -.00001939  00000-0 -10377-3 0  9997,2 49740  53.2145 259.0744 0001622  58.2244 301.8906 15.08833312 39242,6917.901,95.438,540.888,538.644,0.0
49740.0,STARLINK-3226,PAYLOAD,2022-08-10 12:11:54,15.08823058,0.0001594,53.2154,257.289,60.0845,300.0305,-9.6283e-05,-1.819e-05,0.0,0 STARLINK-3226,1 49740U 21115S   22222.50826991 -.00001819  00000-0 -96283-4 0  9997,2 49740  53.2154 257.2890 0001594  60.0845 300.0305 15.08823058 38193,6917.932,95.439,540.9,538.694,0.0
49740.0,STARLINK-3226,PAYLOAD,2022-08-11 12:02:42,15.08822892,0.0001641999999999,53.2152,252.8286,58.5461,301.5691,-1.0121e-05,-4.49e-06,0.0,0 STARLINK-3226,1 49740U 21115S   22223.50187527 -.00000449  00000-0 -10121-4 0  9998,2 49740  53.2152 252.8286 0001642  58.5461 301.5691 15.08822892 39450,6917.933000000001,95.439,540.934,538.6619999999998,0.0
49740.0,STARLINK-3226,PAYLOAD,2022-08-12 11:53:29,15.08823143,0.0001683,53.2155,248.3691,60.3014,299.8145,0.00010581,1.396e-05,0.0,0 STARLINK-3226,1 49740U 21115S   22224.49548248  .00001396  00000-0  10581-3 0  9997,2 49740  53.2155 248.3691 0001683  60.3014 299.8145 15.08823143 38499,6917.932,95.439,540.961,538.633,0.0
49740.0,STARLINK-3226,PAYLOAD,2022-08-12 13:28:52,15.08823591,0.0001682,53.2154,248.0717,60.0266,300.0892,0.00010731,1.419e-05,0.0,0 STARLINK-3226,1 49740U 21115S   22224.56172290  .00001419  00000-0  10731-3 0  9998,2 49740  53.2154 248.0717 0001682  60.0266 300.0892 15.08823591 39615,6917.931,95.439,540.9590000000002,538.632,0.0
49740.0,STARLINK-3226,PAYLOAD,2022-08-12 18:15:02,15.08825166,0.0001689,53.2154,247.1796,60.0652,300.0508,0.00011307,1.511e-05,0.0,0 STARLINK-3226,1 49740U 21115S   22224.76044388  .00001511  00000-0  11307-3 0  9999,2 49740  53.2154 247.1796 0001689  60.0652 300.0508 15.08825166 38532,6917.926,95.438,540.9590000000002,538.622,0.0
49740.0,STARLINK-3226,PAYLOAD,2022-08-13 11:44:16,15.08831976,0.0001718,53.2153,243.9084,60.4113,299.705,0.00010451,1.375e-05,0.0,0 STARLINK-3226,1 49740U 21115S   22225.48908563  .00001375  00000-0  10451-3 0  9990,2 49740  53.2153 243.9084 0001718  60.4113 299.7050 15.08831976 38648,6917.905,95.438,540.9580000000002,538.581,0.0
49740.0,STARLINK-3226,PAYLOAD,2022-08-14 11:35:03,15.08840702,0.0001764,53.2153,239.4477,60.8211,299.2957,9.7153e-05,1.258e-05,0.0,0 STARLINK-3226,1 49740U 21115S   22226.48268292  .00001258  00000-0  97153-4 0  9994,2 49740  53.2153 239.4477 0001764  60.8211 299.2957 15.08840702 38792,6917.878000000002,95.438,540.964,538.523,0.0
49740.0,STARLINK-3226,PAYLOAD,2022-08-14 13:10:26,15.08841897,0.0001764999999999,53.2152,239.1503,60.7645,299.3524,0.00010573,1.395e-05,0.0,0 STARLINK-3226,1 49740U 21115S   22226.54892193  .00001395  00000-0  10573-3 0  9996,2 49740  53.2152 239.1503 0001765  60.7645 299.3524 15.08841897 39911,6917.875,95.437,540.961,538.519,0.0
49740.0,STARLINK-3226,PAYLOAD,2022-08-15 09:50:27,15.08848581,0.000182,53.2152,235.2845,61.2186,298.8989,0.00011112,1.481e-05,0.0,0 STARLINK-3226,1 49740U 21115S   22227.41003536  .00001481  00000-0  11112-3 0  9994,2 49740  53.2152 235.2845 0001820  61.2186 298.8989 15.08848581 38932,6917.854,95.437,540.9780000000002,538.46,0.0
